{
	"type": "FeatureCollection",
	"features": [
		{
			"type": "Feature",
			"properties": { "name": "穴あきサンプル多角形" },
			"geometry": {
				"type": "MultiPolygon",
				"coordinates": [
					[
						[
							[139.614, 35.701],
							[139.631, 35.701],
							[139.631, 35.715],
							[139.614, 35.715],
							[139.614, 35.701]
						],
						[
							[139.619, 35.705],
							[139.619, 35.711],
							[139.626, 35.711],
							[139.626, 35.705],
							[139.619, 35.705]
						]
					],
					[[
						[139.635, 35.699],
						[139.643, 35.699],
						[139.643, 35.706],
						[139.635, 35.706],
						[139.635, 35.699]
					]]
				]
			}
		}
	]
}
